"","id","name","zipCode","districtCode","districtName","stationType","st1","st2","st3","st4","lat","lon"
"1",448,"DR. ANDRADE - ARCOS DE BELÉN",NA,NA,NA,"BIKE,TPV",448,448,448,448,19.426611,-99.14447
"2",443,"BRUNO TRAVEN-GOLONDRINAS","3340","1","Ampliación Granada","BIKE",432,442,444,432,19.359655,-99.162025
"3",416,"RECREO-PARROQUÍA","3104","1","Ampliación Granada","BIKE",390,391,415,390,19.371308,-99.177607
"4",437,"MORAS-COMUNAL","3240","1","Ampliación Granada","BIKE",423,436,438,423,19.36480833,-99.17602222
"5",438,"ADOLFO PRIETO-JOSÉ MARÍA OLLOQUI","3240","1","Ampliación Granada","BIKE",434,435,437,434,19.36479722,-99.17458333
"6",440,"REAL DE MAYORAZGO-PUENTE XOCO","3330","1","Ampliación Granada","BIKE",433,439,441,433,19.36065,-99.168669
"7",347,"PENNSYLVANIA-MAXIMINO AVILA CAMACHO","3710","1","Ampliación Granada","BIKE,TPV",334,346,348,334,19.384378,-99.176097
"8",350,"JOSE CLEMENTE OROZCO-CORREGGIO","3710","1","Ampliación Granada","BIKE",349,352,349,352,19.384062,-99.181482
"9",356,"MATIAS ROMERO -ADOLFO PRIETO","3100","1","Ampliación Granada","BIKE",355,357,372,355,19.381292,-99.170171
"10",361,"PORFIRIO DÍAZ-AV. INSURGENTES","3100","1","Ampliación Granada","BIKE",354,369,370,354,19.3804457,-99.1762233
"11",368,"PORFIRIO DÍAZ-CINCINATTI ","3740","1","Ampliación Granada","BIKE",366,367,369,366,19.379246,-99.179344
"12",369,"PORFIRIO DÍAZ-AV. INSURGENTES","3740","1","Ampliación Granada","BIKE,TPV",367,368,367,368,19.379884,-99.177478
"13",372,"DR. ROBERTO GAYOL-TLACOQUEMECATL","3104","1","Ampliación Granada","BIKE,TPV",373,378,379,373,19.37797,-99.170289
"14",379,"DR. ROBERTO GAYOL-MIGUEL LAURENT","3104","1","Ampliación Granada","BIKE",378,380,395,378,19.375751,-99.17084
"15",402,"UXMAL-MUNICIPIO LIBRE","3310","1","Ampliación Granada","BIKE,TPV",401,403,405,401,19.3709452,-99.1587223
"16",3,"REFORMA-INSURGENTES","06500","1","Ampliación Granada","BIKE,TPV",8,20,86,8,19.431655,-99.158668
"17",12,"RIO LERMA-VILLALONGIN","06500","1","Ampliación Granada","BIKE",11,19,20,85,19.432313,-99.161597
"18",13,"REFORMA-RIO RODANO","06500","1","Ampliación Granada","BIKE,TPV",7,14,21,7,19.423778,-99.175558
"19",16,"REFORMA-RIO GUADALQUIVIR","06500","1","Ampliación Granada","BIKE",9,23,24,9,19.42653,-99.169164
"20",17,"REFORMA-RIO TIBER","06500","1","Ampliación Granada","BIKE,TPV",16,18,25,16,19.427501,-99.167125
"21",19,"REFORMA-RIO NEVA","06500","1","Ampliación Granada","BIKE,TPV",12,20,27,12,19.43001,-99.161675
"22",21,"REFORMA-LIEJA","06500","1","Ampliación Granada","BIKE,TPV",7,13,14,28,19.423317,-99.175124
"23",36,"PUEBLA-VERACRUZ","06140","1","Ampliación Granada","BIKE,TPV",37,41,44,37,19.419725,-99.175778
"24",47,"GLORIETA CIBELES-OAXACA","06700","1","Ampliación Granada","BIKE,TPV",42,51,56,42,19.419515,-99.166299
"25",41,"REFORMA-AV. DE LA REPUBLICA","06700","1","Ampliación Granada","BIKE,TPV",29,29,29,29,19.435637,-99.150137
"26",55,"5 DE MAYO-BOLIVAR","06700","1","Ampliación Granada","BIKE,TPV",65,87,65,87,19.434356,-99.138064
"27",57,"CUERNAVACA-JUAN ESCUTIA","06140","1","Ampliación Granada","BIKE",48,49,50,62,19.414903,-99.17495
"28",66,"MAZATLAN-FRANCISCO MARQUEZ","06170","1","Ampliación Granada","BIKE",65,72,65,72,19.411402,-99.178666
"29",74,"NUEVO LEON-OZULAMA","06100","1","Ampliación Granada","BIKE",63,68,71,63,19.410343,-99.172831
"30",63,"NUEVO LEON- LAREDO","06100","1","Ampliación Granada","BIKE,TPV",70,76,77,70,19.413681,-99.171531
"31",70,"PARQUE MEXICO-MICHOACAN","06100","1","Ampliación Granada","BIKE,TPV",71,76,71,76,19.411272,-99.169718
"32",88,"2A CDA 5 DE MAYO-PALMA",NA,"1","Ampliación Granada","BIKE",55,89,55,89,19.433815,-99.135303
"33",72,"MAZATLAN-ALFONSO REYES","06170","1","Ampliación Granada","BIKE",65,66,75,65,19.409893,-99.179544
"34",86,"SULLIVAN-INSURGENTES","06470","1","Ampliación Granada","BIKE,TPV",12,20,12,20,19.432378,-99.159077
"35",102,"ECHEVESTE-BOLIVAR",NA,"1","Ampliación Granada","BIKE",101,104,109,101,19.42821,-99.13949
"36",110,"DR. VALENZUELA-DR. RÍO DE LA LOZA",NA,"1","Ampliación Granada","BIKE",107,108,122,107,19.42513,-99.14339
"37",111,"GUILLERMO PRIETO-JOAQUÍN VELÁZQUEZ DE LEÓN",NA,"1","Ampliación Granada","BIKE",103,160,183,103,19.438371,-99.166474
"38",112,"AV. MORELOS-ABRAHAM GONZALEZ","06500","1","Ampliación Granada","BIKE",98,113,114,98,19.432819,-99.151734
"39",123,"CLAUDIO BERNARD-DR. LAVISTA","06500","1","Ampliación Granada","BIKE",124,125,133,124,19.424161,-99.153117
"40",150,"CAMPECHE-MEDELLÍN",NA,"1","Ampliación Granada","BIKE",146,151,152,146,19.409965,-99.164292
"41",154,"TUXPAN-TLAXCALA",NA,"1","Ampliación Granada","BIKE,TPV",152,153,157,152,19.406683,-99.167962
"42",171,"COMERCIO-JOSE MARTÍ",NA,"1","Ampliación Granada","BIKE",167,168,173,167,19.402584,-99.178199
"43",173,"MINERÍA-JOSÉ MARTÍ",NA,"1","Ampliación Granada","BIKE",168,169,171,168,19.401682,-99.176398
"44",174,"JOAQUÍN GARCIA-IGNACIO MANUEL ALTAMIRANO",NA,"1","Ampliación Granada","BIKE,TPV",160,183,254,160,19.44111,-99.16164
"45",204,"TEMISTOCLES-HOMERO","11510","1","Ampliación Granada","BIKE",196,200,245,196,19.435882,-99.19152
"46",197,"MIGUEL DE CERVANTES-FC DE CUERNAVACA",NA,"1","Ampliación Granada","BIKE,TPV",197,197,197,197,19.440077,-99.204316
"47",227,"CAMPOS ELÍSEOS-PERIFÉRICO",NA,"1","Ampliación Granada","BIKE",213,219,220,213,19.431791,-99.207373
"48",181,"BENJAMIN FRANKLIN-SALTILLO",NA,"1","Ampliación Granada","BIKE",168,169,179,168,19.404976,-99.175095
"49",232,"TAINE-RUBEN DARÍO ",NA,"1","Ampliación Granada","BIKE",224,225,226,224,19.42894,-99.185389
"50",237,"ANDRÉS BELLO-ELLIOT ",NA,"1","Ampliación Granada","BIKE,TPV",193,234,238,193,19.426744,-99.193986
"51",238,"ANDRÉS BELLO-ELLIOT ",NA,"1","Ampliación Granada","BIKE",193,234,237,193,19.426765,-99.193752
"52",234,"TRES PICOS-ARQUÍMIDES ",NA,"1","Ampliación Granada","BIKE",192,193,231,192,19.42783,-99.191539
"53",243,"MIGUEL DE CERVANTES SAAVEDRA-LAGO FILT ","11510","1","Ampliación Granada","BIKE",199,242,244,199,19.440839,-99.196712
"54",248,"SHAKESPEARE-LAFAYETTE ","11510","1","Ampliación Granada","BIKE",246,247,249,246,19.43175,-99.177399
"55",250,"DARWIN-MARIANO ESCOBEDO ","11510","1","Ampliación Granada","BIKE,TPV",239,249,252,239,19.429057,-99.17966
"56",253,"DANTE-TOLSTOI ","11510","1","Ampliación Granada","BIKE,TPV",195,252,261,195,19.425835,-99.177924
"57",255,"JOSE ROSAS MORENO-GUILLERMO PRIETO ",NA,"1","Ampliación Granada","BIKE",160,183,257,160,19.437159,-99.161808
"58",259,"TÓMAS ALVA EDISON-PONCIANO ARRIAGA ",NA,"1","Ampliación Granada","BIKE",256,256,256,256,19.43757,-99.15468
"59",261,"PASEO DE LA REFORMA-RÍO RÓDANO ",NA,"1","Ampliación Granada","BIKE",195,252,253,195,19.423704,-99.175196
"60",264,"HÉROES FERROCARRILEROS-AV. CENTRAL",NA,"1","Ampliación Granada","BIKE",265,266,268,265,19.440985,-99.152935
"61",265,"HÉROES FERROCARRILEROS-JESÚS GARCIA",NA,"1","Ampliación Granada","BIKE,TPV",264,275,264,275,19.440839,-99.152265
"62",273,"LUIS DONALDO COLOSIO-AV. CENTRAL",NA,"1","Ampliación Granada","BIKE",176,268,274,176,19.442707,-99.152956
"63",277,"AMPLIACIÓN TONALÁ-OBRERO MUNDIAL","3020","1","Ampliación Granada","BIKE",165,276,280,165,19.401807,-99.15909
"64",278,"MIER Y PESADO-OBRERO MUNDIAL","3103","1","Ampliación Granada","BIKE",164,279,282,164,19.40071,-99.163831
"65",271,"AV. CENTRAL-J. MENESES ",NA,"1","Ampliación Granada","BIKE",266,267,272,266,19.442689,-99.152465
"66",283,"AV. COYOACÁN-RAFAEL DONDE","3103","1","Ampliación Granada","BIKE",279,292,293,279,19.39827,-99.167383
"67",288,"11 DE ABRIL-AVENIDA 2","3800","1","Ampliación Granada","BIKE",287,310,311,287,19.396333,-99.183575
"68",305,"AVENIDA DEL PARQUE-ARIZONA","3810","1","Ampliación Granada","BIKE,TPV",304,306,307,304,19.394693,-99.175531
"69",308,"NUEVA YORK-ARIZONA","3810","1","Ampliación Granada","BIKE",306,307,309,306,19.393594,-99.178072
"70",310,"CALLE 1-AV. PATRIOTISMO","3800","1","Ampliación Granada","BIKE",309,311,312,309,19.395319,-99.181733
"71",311,"CALLE 5-AVENIDA REVOLUCIÓN","3800","1","Ampliación Granada","BIKE",310,312,328,310,19.393665,-99.185391
"72",313,"PENNSYLVANIA-OKLAHOMA","3810","1","Ampliación Granada","BIKE",308,309,314,308,19.391431,-99.178989
"73",321,"TORRES ADALID-ANAXÁGORAS","3020","1","Ampliación Granada","BIKE",320,322,340,320,19.389477,-99.157513
"74",322,"HERIBERTO FRÍAS-CONCEPCIÓN BEISTEGUI","3020","1","Ampliación Granada","BIKE",321,323,339,321,19.388528,-99.160616
"75",325,"PROVIDENCIA -AVENIDA DEL VALLE","3100","1","Ampliación Granada","BIKE",316,335,336,316,19.3881779,-99.1696894
"76",251,"GOETHE-DARWIN ","11510","2","Anzures","BIKE",248,249,252,248,19.429261,-99.17538
"77",252,"VICTOR HUGO-SHAKESPEARE ","11510","2","Anzures","BIKE",249,251,253,249,19.427575,-99.17702
"78",249,"SHAKESPEARE-DARWIN ","11510","2","Anzures","BIKE",248,250,251,248,19.429877,-99.177569
"79",246,"LEIBNITZ-THIERS","11510","2","Anzures","BIKE",207,247,248,207,19.434147,-99.179835
"80",247,"HERSCHEL-ROUSSEAU ","11510","2","Anzures","BIKE",226,239,246,226,19.432102,-99.180565
"81",452,"LEIBNITZ-AV. EJERCITO NACIONAL",NA,"2","Anzures","BIKE",452,452,452,452,19.435031,-99.179838
"82",439,"AMORES-AVENIDA COYOACÁN","3240","ACA","Acacias","BIKE",433,434,438,433,19.36218889,-99.17246667
"83",436,"RODRIGUEZ SARO-BUFALLO","3240","ACA","Acacias","BIKE",422,423,437,422,19.366217,-99.177819
"84",423,"MORAS-JOSÉ MARÍA RICO (EJE 8)","3240","ACA","Acacias","BIKE",422,436,437,422,19.367631,-99.175342
"85",435,"RODRIGUEZ SARO-AVENIDA COYOACÁN","3230","ACT","Actipan","BIKE",433,434,438,433,19.365154,-99.172906
"86",420,"MARÍA LUZ BRINGAS-OSO","3230","ACT","Actipan","BIKE",418,419,421,418,19.369723,-99.17964
"87",421,"MARÍA LUZ BRINGAS-OSO","3230","ACT","Actipan","BIKE",419,420,422,419,19.369467,-99.179401
"88",422,"BUFALO-JOSÉ MARÍA RICO (EJE 8)","3230","ACT","Actipan","BIKE",421,423,436,421,19.368356,-99.177487
"89",349,"AUGUSTO RODIN-AVENIDA SAN ANTONIO","3840","AMN","Ampliación Nápoles","BIKE",332,348,350,332,19.385688,-99.180857
"90",334,"NUEVA YORK-AV. INSURGENTES","3840","AMN","Ampliación Nápoles","BIKE",326,335,346,326,19.386568,-99.175089
"91",326,"EUGENIA-NEBRASKA","3840","AMN","Ampliación Nápoles","BIKE",327,334,335,327,19.388978,-99.174811
"92",266,"AV. JESÚS GARCIA-CARLOS J. MENESES ",NA,"BUE","Buenavista","BIKE,TPV",267,268,269,267,19.444031,-99.152187
"93",267,"AV. JESÜS GARCÏA-CARLOS J. MENESES",NA,"BUE","Buenavista","BIKE",176,266,271,176,19.443735,-99.152203
"94",268,"LUIS DONALDO COLOSIO-AV.JESÚS GARCÍA ",NA,"BUE","Buenavista","BIKE",176,269,273,176,19.442448,-99.151586
"95",269,"LUIS DONALDO COLOSIO-ALDAMA ",NA,"BUE","Buenavista","BIKE",176,268,273,176,19.442467,-99.151658
"96",272,"AV. CENTRAL-J. MENESES ",NA,"BUE","Buenavista","BIKE",266,267,271,266,19.443467,-99.152491
"97",274,"LUIS DONALDO COLOSIO-AV INSURGENTES NORTE ",NA,"BUE","Buenavista","BIKE",176,268,273,176,19.442772,-99.153289
"98",275,"HÉROES FERROCARRILEROS-AV. INSURGENTES NORTE",NA,"BUE","Buenavista","BIKE",264,265,264,265,19.441062,-99.153164
"99",176,"AV. JESÜS GARCÏA-LUIS DONALDO COLOSIO",NA,"BUE","Buenavista","BIKE",266,267,272,266,19.442689,-99.152286
"100",348,"INDIANA-AVENIDA SAN ANTONIO","3710","CDD","Ciudad de los Deportes","BIKE",347,349,350,347,19.385365,-99.178216
"101",362,"AUGUSTO RODIN-ALBERTO BALDERAS","3710","CDD","Ciudad de los Deportes","BIKE",367,368,367,368,19.382207,-99.181043
"102",363,"HOLBEIN-PAULO UCELLO","3710","CDD","Ciudad de los Deportes","BIKE",362,367,362,367,19.380813,-99.183851
"103",353,"CAROLINA-HOLBEIN","3710","CDD","Ciudad de los Deportes","BIKE,TPV",354,361,362,354,19.382168,-99.178808
"104",262,"REPUBLICA DE CUBA-REPUBLICA DE BRASIL ",NA,"CEN","Centro","BIKE,TPV",91,92,93,91,19.43693,-99.13395
"105",260,"AV JUAREZ-BALDERAS ",NA,"CEN","Centro","BIKE",29,41,43,29,19.435354,-99.147742
"106",105,"SAN JERONIMO-5 DE FEBRERO","06500","CEN","Centro","BIKE",101,104,106,101,19.426755,-99.135014
"107",106,"SAN JERONIMO-JOSE MARIA PINO SUAREZ","06500","CEN","Centro","BIKE",100,101,105,100,19.42649,-99.133537
"108",107,"TOLSA-BALDERAS","06500","CEN","Centro","BIKE",98,108,122,98,19.427329,-99.149971
"109",108,"TOLSA-BALDERAS","06500","CEN","Centro","BIKE,TPV",98,107,122,98,19.427305,-99.149533
"110",109,"NEZAHUALCOYOTL-ISABEL LA CATOLICA","06500","CEN","Centro","BIKE",104,105,106,104,19.425311,-99.137421
"111",65,"MARCONI-TACUBA","06170","CEN","Centro","BIKE",52,55,52,55,19.436142,-99.139906
"112",87,"GANTE-VENUSTIANO CARRANZA",NA,"CEN","Centro","BIKE,TPV",95,96,95,96,19.43182,-99.13974
"113",89,"REPUBLICA DE GUATEMALA-MONTE DE PIEDAD",NA,"CEN","Centro","BIKE,TPV",90,90,90,90,19.434946,-99.133989
"114",90,"JOSE MARIA PINO SUAREZ-CORREGIDORA",NA,"CEN","Centro","BIKE,TPV",89,89,89,89,19.431698,-99.132446
"115",91,"REPUBLICA DE CUBA-ALLENDE","06500","CEN","Centro","BIKE",90,92,93,90,19.4374,-99.137571
"116",92,"SAN ILDEFONSO-REPUBLICA DE ARGENTINA","06500","CEN","Centro","BIKE",90,91,93,90,19.436531,-99.131497
"117",93,"PALMA NORTE-REPUBLICA DE CUBA","06500","CEN","Centro","BIKE",90,91,92,90,19.436741,-99.134811
"118",94,"LIC. VERDAD-MONEDA",NA,"CEN","Centro","BIKE",94,94,94,94,19.433766,-99.130918
"119",95,"20 DE NOVIEMBRE-VENUSTIANO CARRANZA","06500","CEN","Centro","BIKE",93,96,97,93,19.430722,-99.133698
"120",96,"LOPEZ-AYUNTAMIENTO","06500","CEN","Centro","BIKE",98,98,98,98,19.430625,-99.14248
"121",97,"REPUBLICA DE SALVADOR-PINO SUAREZ","06500","CEN","Centro","BIKE,TPV",90,100,90,100,19.429189,-99.132759
"122",98,"EMILIO DONDE-AV. BALDERAS","06500","CEN","Centro","BIKE",107,108,107,108,19.430267,-99.14861
"123",99,"ERNESTO PUGIBET-LUIS MOYA",NA,"CEN","Centro","BIKE",96,98,122,96,19.42995,-99.14591
"124",100,"20 DE NOVIEMBRE-MESONES","06500","CEN","Centro","BIKE",95,97,101,95,19.428485,-99.1338
"125",101,"1ER. CALLEJÓN DE MESONES-MESONES",NA,"CEN","Centro","BIKE",100,104,105,100,19.428366,-99.135895
"126",82,"INDEPENDENCIA-MARROQUI","06100","CEN","Centro","BIKE,TPV",43,48,43,48,19.433115,-99.143686
"127",52,"HIDALGO-TRUJANO","06140","CEN","Centro","BIKE,TPV",43,43,43,43,19.436236,-99.142039
"128",48,"INDEPENDENCIA-AZUETA","06700","CEN","Centro","BIKE",43,82,43,82,19.433686,-99.146557
"129",43,"JUAREZ-REVILLAGIGEDO","06700","CEN","Centro","BIKE,TPV",52,82,52,82,19.435228,-99.146063
"130",29,"REFORMA-BUCARELI","06500","CEN","Centro","BIKE,TPV",41,41,41,41,19.434913,-99.149939
"131",192,"RUBEN DARIO-REFORMA","11510","CHA","Bosque de Chapultepec","BIKE,TPV",193,234,238,193,19.42592,-99.190755
"132",193,"RUBEN DARIO-REFORMA","11510","CHA","Bosque de Chapultepec","BIKE",192,234,238,192,19.425907,-99.190733
"133",194,"CTO MAHATMA GANDHI-AV. PASEO DE LA REFORMA","11510","CHA","Bosque de Chapultepec","BIKE,TPV",195,253,261,195,19.424282,-99.180334
"134",195,"AV. PASEO DE LA REFORMA-CTO MAHATMA GANDHI",NA,"CHA","Bosque de Chapultepec","BIKE,TPV",194,253,261,194,19.424926,-99.185147
"135",258,"CIRCUITO INTERIOR-JUAN ESCUTIA ",NA,"CON","Condesa","BIKE",36,49,53,36,19.4167,-99.1791
"136",49,"MAZATLAN-JUAN DE LA BARRERA","06140","CON","Condesa","BIKE",41,44,50,60,19.416712,-99.175704
"137",50,"CUERNAVACA-VERACRUZ","06140","CON","Condesa","BIKE",44,49,57,58,19.416938,-99.173648
"138",53,"FERNANDO MONTES DE OCA-TULA","06140","CON","Condesa","BIKE",52,60,65,66,19.414773,-99.178433
"139",54,"PARQUE ESPAÑA-SONORA","06700","CON","Condesa","BIKE,TPV",50,51,58,63,19.416215,-99.170825
"140",58,"PARQUE ESPAÑA-JUAN DE LA BARRERA","06140","CON","Condesa","BIKE",50,54,61,63,19.41568,-99.171793
"141",67,"VICENTE SUAREZ-MICHOACAN","06170","CON","Condesa","BIKE",62,66,68,62,19.411797,-99.17588
"142",68,"TAMAULIPAS-MICHOACAN","06170","CON","Condesa","BIKE,TPV",67,71,74,67,19.411556,-99.17406
"143",60,"MAZATLAN-FERNANDO MONTES DE OCA","06140","CON","Condesa","BIKE",23,52,62,66,19.414191,-99.177123
"144",62,"FERNANDO MONTES DE OCA-AMATLAN","06140","CON","Condesa","BIKE",67,71,74,67,19.413322,-99.175202
"145",11,"RIO AMAZONAS-RIO LERMA","06500","CUA","Cuauhtémoc","BIKE",3,12,19,3,19.430992,-99.163593
"146",20,"REFORMA-RIO TAMESIS","06500","CUA","Cuauhtémoc","BIKE",12,19,27,12,19.430964,-99.160206
"147",18,"REFORMA-RIO SENA","06500","CUA","Cuauhtémoc","BIKE,TPV",17,25,17,25,19.42836,-99.165543
"148",14,"REFORMA-RIO DE PLATA","06500","CUA","Cuauhtémoc","BIKE",13,21,22,28,19.424768,-99.173261
"149",15,"REFORMA-RIO MISSISSIPPI","06500","CUA","Cuauhtémoc","BIKE,TPV",14,16,22,23,19.425477,-99.171567
"150",4,"RIO NILO-RIO PANUCO","06500","CUA","Cuauhtémoc","BIKE",5,8,9,10,19.428309,-99.171713
"151",5,"RIO PANUCO-RIO TIBER","06500","CUA","Cuauhtémoc","BIKE",2,4,9,10,19.42972,-99.169363
"152",6,"RIO PANUCO-RIO SENA","06500","CUA","Cuauhtémoc","BIKE",1,3,5,10,19.430922,-99.166959
"153",7,"RIO ELBA-RIO LERMA","06500","CUA","Cuauhtémoc","BIKE",13,14,21,28,19.425468,-99.175166
"154",1,"RIO BALSAS-RIO SENA","06500","CUA","Cuauhtémoc","BIKE,TPV",2,3,85,2,19.433296,-99.168051
"155",2,"RIO GUADALQUIVIR-RIO BALSAS","06500","CUA","Cuauhtémoc","BIKE",1,5,1,5,19.431386,-99.171695
"156",9,"RIO GUADALQUIVIR-RIO LERMA","06500","CUA","Cuauhtémoc","BIKE",4,5,8,16,19.428009,-99.169918
"157",104,"SAN JERONIMO-ISABEL LA CATOLICA","06500","CUA","Cuauhtémoc","BIKE,TPV",101,105,109,101,19.427059,-99.137116
"158",124,"CLAUDIO BERNARD-DR. LICEAGA","06500","DOC","Doctores","BIKE",119,123,133,119,19.422392,-99.150358
"159",122,"JOSE MARIA VERTIZ-AV.DR. RIO DE LA LOZA","06500","DOC","Doctores","BIKE",99,108,110,99,19.425502,-99.146337
"160",357,"MATIAS ROMERO -AMORES","3100","DVC","Del Valle Centro","BIKE",356,358,373,356,19.380598,-99.1669248
"161",358,"NICOLAS SAN JUAN-MATIAS ROMERO ","3100","DVC","Del Valle Centro","BIKE",357,360,373,357,19.380168,-99.164222
"162",359,"MATIAS ROMERO -PESTALLOZZI","3100","DVC","Del Valle Centro","BIKE,TPV",342,360,374,342,19.379269,-99.161169
"163",360,"HERIBERTO FRÍAS-MATIAS ROMERO","3100","DVC","Del Valle Centro","BIKE",358,359,374,358,19.3790279,-99.1628259
"164",324,"AMORES-AVENIDA EUGENIA","3100","DVC","Del Valle Centro","BIKE",323,336,337,323,19.3872468,-99.1656554
"165",343,"ENRIQUE RÉBSAMEN-DIVISIÓN DEL NORTE","3100","DVC","Del Valle Centro","BIKE",338,341,344,338,19.384099,-99.160826
"166",344,"HERIBERTO FRÍAS-ANGEL URRAZA EJE 6 SUR","3100","DVC","Del Valle Centro","BIKE",338,343,358,338,19.382107,-99.162243
"167",335,"MAGDALENA-AMEYALCO","3100","DVC","Del Valle Centro","BIKE",326,334,346,326,19.387003,-99.173504
"168",336,"SAN BORJA-CDA. BARTOLOCHE","3100","DVC","Del Valle Centro","BIKE",325,337,345,325,19.385531,-99.169673
"169",337,"SAN BORJA-MARTÍN MENLALDE","3100","DVC","Del Valle Centro","BIKE,TPV",324,336,338,324,19.384849,-99.16704
"170",338,"NICOLAS SAN JUAN-SAN BORJA","3100","DVC","Del Valle Centro","BIKE",324,336,337,324,19.384249,-99.163273
"171",373,"PILARES-GABRIEL MANCERA","3100","DVC","Del Valle Centro","BIKE",357,372,378,357,19.377968,-99.166663
"172",374,"PITÁGORAS-PILARES","3100","DVC","Del Valle Centro","BIKE,TPV",359,375,376,359,19.376964,-99.161116
"173",282,"LA MORENA-EJE 2 PONIENTE GABRIEL MANCERA","3103","DVN","Del Valle Norte","BIKE",278,293,294,278,19.398692,-99.161273
"174",279,"LA MORENA-PROVIDENCIA","3103","DVN","Del Valle Norte","BIKE",164,278,282,164,19.399908,-99.166553
"175",323,"CONCEPCIÓN BEISTEGUI-GABRIEL MANCERA","3103","DVN","Del Valle Norte","BIKE",319,322,324,319,19.389026,-99.163403
"176",316,"SAN FRANCISCO-CONCEPCIÓN BEISTEGUI","3103","DVN","Del Valle Norte","BIKE",301,302,301,302,19.391056,-99.1712
"177",317,"AVENIDA COYOACÁN-TORRES ADALID","3103","DVN","Del Valle Norte","BIKE,TPV",299,300,318,299,19.391456,-99.166157
"178",318,"LUZ SAVIÑÓN-AMORES","3103","DVN","Del Valle Norte","BIKE",299,317,319,299,19.392249,-99.164127
"179",319,"DIAGONAL SAN ANTONIO-LUZ SAVIÑON","3103","DVN","Del Valle Norte","BIKE",298,318,320,298,19.391991,-99.162684
"180",291,"MAGDALENA-DIVISIÓN DEL NORTE","3103","DVN","Del Valle Norte","BIKE",283,284,290,283,19.397651,-99.169946
"181",292,"ADOLFO PRIETO-EJE 4 SUR XOLA","3103","DVN","Del Valle Norte","BIKE",283,293,299,283,19.396917,-99.166264
"182",293,"MIER Y PESADO-EJE 4 SUR XOLA","3103","DVN","Del Valle Norte","BIKE,TPV",283,292,294,283,19.397373,-99.164598
"183",298,"ROMERO DE TERREROS-GABRIEL MANCERA","3103","DVN","Del Valle Norte","BIKE",294,318,319,294,19.394073,-99.16214
"184",299,"ROMERO DE TERREROS-MIER Y PESADO","3103","DVN","Del Valle Norte","BIKE",292,298,318,292,19.394601,-99.165054
"185",300,"PROVIDENCIA -LUZ SAVIÑON","3103","DVN","Del Valle Norte","BIKE",301,302,317,301,19.393268,-99.168333
"186",301,"LUZ SAVIÑÓN-MAGDALENA","3103","DVN","Del Valle Norte","BIKE",300,302,316,300,19.393807,-99.171133
"187",302,"LUZ SAVIÑON-MAGDALENA","3103","DVN","Del Valle Norte","BIKE",301,303,304,301,19.393832,-99.171466
"188",377,"HERIBERTO FRÍAS-MIGUEL LAURENT","3104","DVS","Del Valle Sur","BIKE",373,376,400,373,19.375394,-99.16375
"189",378,"MIGUEL LAURENT-AMORES","3104","DVS","Del Valle Sur","BIKE",372,373,379,372,19.375823,-99.168076
"190",390,"OSO-FELIX CUEVAS","3104","DVS","Del Valle Sur","BIKE,TPV",389,391,416,389,19.373228,-99.17826
"191",391,"OSO-FELIX CUEVAS","3104","DVS","Del Valle Sur","BIKE",389,390,416,389,19.373142,-99.178283
"192",394,"DR. ROBERTO GAYOL-FELIX CUEVAS","3104","DVS","Del Valle Sur","BIKE",393,395,396,393,19.372437,-99.171592
"193",395,"SAN LORENZO-CALLEJÓN MARTÍN MENLALDE","3104","DVS","Del Valle Sur","BIKE",379,394,396,379,19.373742,-99.169814
"194",396,"MARTÍN MENLALDE-FELIX CUEVAS","3104","DVS","Del Valle Sur","BIKE",394,395,413,394,19.371554,-99.170187
"195",397,"SAN LORENZO-GABRIEL MANCERA","3104","DVS","Del Valle Sur","BIKE",398,399,400,398,19.373194,-99.167247
"196",398,"SANCHEZ AZCONA-FELIX CUEVAS","3104","DVS","Del Valle Sur","BIKE",397,399,400,397,19.37103,-99.16566
"197",399,"HERIBERTO FRÍAS-SAN LORENZO","3104","DVS","Del Valle Sur","BIKE",397,398,400,397,19.372407,-99.164519
"198",400,"SAN LORENZO-HERIBERTO FRIAS","3104","DVS","Del Valle Sur","BIKE",397,398,399,397,19.3726458,-99.1642743
"199",433,"JOSE MARÍA OLLOQUI-LOPÉZ COSTILLA","3104","DVS","Del Valle Sur","BIKE",434,435,439,434,19.363558,-99.170819
"200",434,"JOSE MARÍA OLLOQUI-AMORES","3104","DVS","Del Valle Sur","BIKE,TPV",433,435,439,433,19.363776,-99.171498
"201",424,"AMORES-JOSÉ MARÍA RICO (EJE 8)","3104","DVS","Del Valle Sur","BIKE",413,425,435,413,19.367208,-99.170531
"202",425,"NICOLAS SAN JUAN-AVENIDA UNIVERSIDAD","3104","DVS","Del Valle Sur","BIKE",411,412,426,411,19.367087,-99.16741
"203",413,"PARROQUIA-AVENIDA COYOACÁN","3104","DVS","Del Valle Sur","BIKE",396,414,424,396,19.369782,-99.171906
"204",414,"PARROQUIA-JOSÉ IGNACIO BARTOLACHE","3104","DVS","Del Valle Sur","BIKE",413,415,423,413,19.370187,-99.173712
"205",415,"SAN FRANCISCO-PARROQUÍA","3104","DVS","Del Valle Sur","BIKE",391,414,416,391,19.371498,-99.17602
"206",285,"12 DE OCTUBRE-MINERIA","11800","ESC","Escandón","BIKE",171,173,286,171,19.399688,-99.177524
"207",286,"13 DE SEPTIEMBRE-AVENIDA PATRIOTISMO","11800","ESC","Escandón","BIKE",171,285,287,171,19.399201,-99.179943
"208",287,"13 DE SEPTIEMBRE-PUENTE DE LA MORENA","11800","ESC","Escandón","BIKE",286,288,311,286,19.398946,-99.183254
"209",175,"MUTUALISMO-JOSÉ MARTí",NA,"ESC","Escandón","BIKE",169,179,182,169,19.400806,-99.172645
"210",172,"GENERAL FRANCISCO MURGUIA-JOSE MARTÍ",NA,"ESC","Escandón","BIKE",167,170,171,167,19.403365,-99.181553
"211",166,"PROGRESO-CDA. ANTONIO MACEO",NA,"ESC","Escandón","BIKE",170,172,181,170,19.406069,-99.183549
"212",167,"GENERAL SALVADOR ALVARADO-PROGRESO",NA,"ESC","Escandón","BIKE",168,172,178,168,19.404651,-99.179375
"213",168,"COMERCIO-PROGRESO",NA,"ESC","Escandón","BIKE,TPV",167,169,173,167,19.403997,-99.1776
"214",169,"PROSPERIDAD-PROGRESO",NA,"ESC","Escandón","BIKE",168,170,175,168,19.403019,-99.174934
"215",170,"OBSERVATORIO ORIENTE-REVOLUCIÓN",NA,"ESC","Escandón","BIKE",166,167,172,166,19.404029,-99.184342
"216",383,"LUIS CARACCI-2DA. LUIS CARACCI","3740","EXI","Extremadura Insurgentes","BIKE",366,382,387,366,19.375764,-99.181527
"217",366,"PORFIRIO DÍAZ-AUGUSTO RODÍN","3740","EXI","Extremadura Insurgentes","BIKE",362,367,368,362,19.378345,-99.181973
"218",428,"PROLONGACIÓN UXMAL-AV. POPOCATEPETL (EJE 8)","3340","GPM","General Pedro Maria Anaya","BIKE",427,430,431,427,19.363418,-99.160353
"219",431,"BRUNO TRAVEN-PAZ MONTES DE OCA","3340","GPM","General Pedro Maria Anaya","BIKE",428,429,430,428,19.36145,-99.15822
"220",432,"CARRILLO PUERTO-AV. MÉXICO-COYOACÁN","3340","GPM","General Pedro Maria Anaya","BIKE",442,443,444,442,19.361296,-99.162581
"221",444,"GENERAL MANUEL RINCÓN-AGUSTÍN GUTIERREZ","3340","GPM","General Pedro Maria Anaya","BIKE",431,432,443,431,19.359384,-99.159425
"222",445,"RIFF-AVENIDA RIO CHURUBUSCO","3340","GPM","General Pedro Maria Anaya","BIKE",431,444,446,431,19.35827,-99.156105
"223",446,"RIFF-AVENIDA RIO CHURUBUSCO","3340","GPM","General Pedro Maria Anaya","BIKE,TPV",431,444,445,431,19.3591196,-99.1561282
"224",242,"MIGUEL DE CERVANTES SAAVEDRA-PROL MOLIERE ","11510","GRA","Granada","BIKE",198,199,243,198,19.440344,-99.20105
"225",244,"MIGUEL DE CERVANTES SAAVEDRA-LAGO VICTORIA ","11510","GRA","Granada","BIKE",196,243,245,196,19.440885,-99.193315
"226",245,"LAGO ONEGA-AV. EJERCITO NACIONAL ","11510","GRA","Granada","BIKE",196,200,201,196,19.438165,-99.190368
"227",177,"BENJAMIN HILL-CARLOS ZETINA",NA,"H-C","Hipódromo Condesa","BIKE",176,178,190,176,19.408841,-99.181692
"228",178,"TAMAULIPAS-FRANCISCO MURGUÍA",NA,"H-C","Hipódromo Condesa","BIKE,TPV",166,167,177,166,19.406833,-99.180457
"229",73,"CAMPECHE-TAMAULIPAS","06170","H-C","Hipódromo Condesa","BIKE",67,68,75,67,19.410245,-99.175612
"230",75,"ALFONSO REYES-ATLIXCO","06170","H-C","Hipódromo Condesa","BIKE",73,77,78,73,19.408722,-99.17669
"231",76,"CHILPANCINGO-CAMPECHE","06100","HIP","Hipódromo","BIKE",70,71,74,70,19.408736,-99.169913
"232",77,"CHOAPAN-TAMAULIPAS","06100","HIP","Hipódromo","BIKE",78,82,78,82,19.406765,-99.178321
"233",78,"BENJAMIN HILL-TAMAULIPAS","06170","HIP","Hipódromo","BIKE,TPV",77,82,77,82,19.407503,-99.177382
"234",79,"SALTILLO-ALFONSO REYES","06100","HIP","Hipódromo","BIKE",75,80,83,75,19.407534,-99.174427
"235",80,"NUEVO LEON-AGUASCALIENTES","06100","HIP","Hipódromo","BIKE",79,83,84,79,19.407307,-99.172118
"236",81,"AGUASCALIENTES-INSURGENTES","06100","HIP","Hipódromo","BIKE",76,84,76,84,19.408006,-99.168475
"237",61,"AVENIDA MEXICO-SONORA","06100","HIP","Hipódromo","BIKE,TPV",59,63,64,70,19.413742,-99.169525
"238",69,"MICHOACAN-AMSTERDAM","06100","HIP","Hipódromo","BIKE",70,76,77,70,19.410733,-99.168111
"239",59,"POPOCATEPETL-AMSTERDAM","06100","HIP","Hipódromo","BIKE",55,56,61,64,19.415121,-99.166661
"240",83,"NUEVO LEON-ALFONSO REYES","06100","HIP","Hipódromo","BIKE,TPV",79,80,79,80,19.406296,-99.172117
"241",84,"CHILPANCINGO-TLAXCALA","06100","HIP","Hipódromo","BIKE",81,83,81,83,19.40702,-99.169587
"242",71,"AMSTERDAM-MICHOACAN","06100","HIP","Hipódromo","BIKE",70,74,76,70,19.411423,-99.171351
"243",64,"SONORA-AMSTERDAM","06100","HIP","Hipódromo","BIKE",59,61,59,61,19.412877,-99.166986
"244",179,"NUEVO LEÓN-QUINTANA ROO",NA,"HIP","Hipódromo","BIKE",154,180,182,154,19.404452,-99.171438
"245",180,"QUINTANA ROO-VILLA HERMOSA",NA,"HIP","Hipódromo","BIKE",154,179,182,154,19.404554,-99.169953
"246",182,"PROGRESO-ASTRONOMOS",NA,"HIP","Hipódromo","BIKE,TPV",175,179,175,179,19.402089,-99.17139
"247",417,"GOYA-AUGUSTO RODÍN","3920","INM","Insurgentes Mixcoac","BIKE,TPV",384,385,386,384,19.373262,-99.184333
"248",418,"GALICIA-ACTIPAN","3920","INM","Insurgentes Mixcoac","BIKE",388,417,419,388,19.371152,-99.183034
"249",419,"ACTIPAN-CADIZ","3920","INM","Insurgentes Mixcoac","BIKE",418,420,421,418,19.370606,-99.181502
"250",384,"EMPRESA-POUSSIN","3920","INM","Insurgentes Mixcoac","BIKE",385,386,417,385,19.375873,-99.185583
"251",385,"POUSSIN-EMPRESA","3920","INM","Insurgentes Mixcoac","BIKE,TPV",384,386,417,384,19.375651,-99.18558
"252",386,"POUSSIN-DONATELLO","3920","INM","Insurgentes Mixcoac","BIKE",384,385,417,384,19.37484,-99.185846
"253",387,"CADIZ-EMPRESA","3920","INM","Insurgentes Mixcoac","BIKE",381,382,383,381,19.37455556,-99.180505555556
"254",388,"VALENCIA-MALAGA","3920","INM","Insurgentes Mixcoac","BIKE",387,389,390,387,19.373038,-99.181355
"255",389,"SANTANDER-FELIX CUEVAS","3920","INM","Insurgentes Mixcoac","BIKE",388,390,391,388,19.373528,-99.179356
"256",345,"MIRAFLORES-PATRICIO SANZ","3100","ISB","Insurgentes San Borja","BIKE",334,335,346,334,19.384498,-99.172223
"257",346,"SAN FRANCISCO-SANTA MARGARITA","3100","ISB","Insurgentes San Borja","BIKE",334,335,345,334,19.385019,-99.174077
"258",355,"CALIFORNIA-SACRAMENTO","3100","ISB","Insurgentes San Borja","BIKE",345,361,345,361,19.38205,-99.173291
"259",447,"AGUSTÍN MELGAR-ZAMORA",NA,"JUA","Juárez","BIKE",447,447,447,447,19.418858,-99.176776
"260",449,"ACAPULCO-PUEBLA",NA,"JUA","Juárez","BIKE",449,449,449,449,19.42018,-99.174393
"261",113,"GENERAL PRIM-VERSALLES","06500","JUA","Juárez","BIKE",114,116,119,114,19.430369,-99.154419
"262",114,"LUCERNA-ABRAHAM GONZALEZ ","06500","JUA","Juárez","BIKE",113,116,119,113,19.428989,-99.153618
"263",115,"ROMA-DINAMARCA ","06500","JUA","Juárez","BIKE",116,117,118,116,19.429947,-99.159698
"264",116,"LONDRES-ROMA","06500","JUA","Juárez","BIKE",115,118,199,115,19.428985,-99.15664
"265",117,"LONDRES-NAPOLES ","06500","JUA","Juárez","BIKE",116,118,120,116,19.427132,-99.160369
"266",118,"LIVERPOOL-DINAMARCA","06500","JUA","Juárez","BIKE",116,117,120,116,19.427114,-99.158251
"267",119,"TURÍN-ABRAHAM GONZÁLEZ",NA,"JUA","Juárez","BIKE",114,118,125,114,19.42679,-99.15554
"268",120,"MARSELLA-NAPOLES","06500","JUA","Juárez","BIKE",117,118,121,117,19.425437,-99.159458
"269",121,"NIZA-CHAPULTEPEC","06500","JUA","Juárez","BIKE",117,120,128,117,19.424137,-99.161317
"270",30,"HAMBURGO-GENOVA","06500","JUA","Juárez","BIKE,TPV",26,34,35,26,19.426442,-99.164323
"271",31,"HAMBURGO-INSURGENTES","06500","JUA","Juárez","BIKE",19,27,30,19,19.427838,-99.161193
"272",32,"LONDRES-SEVILLA","06500","JUA","Juárez","BIKE",22,38,39,22,19.422705,-99.169922
"273",33,"LONDRES-FLORENCIA","06500","JUA","Juárez","BIKE",29,39,40,29,19.424234,-99.166431
"274",34,"LIVERPOOL-GENOVA","05600","JUA","Juárez","BIKE",30,33,35,30,19.424539,-99.163503
"275",35,"LIVERPOOL-GENOVA","06500","JUA","Juárez","BIKE,TPV",30,34,40,30,19.424572,-99.163123
"276",22,"REFORMA-MANCHESTER","06500","JUA","Juárez","BIKE,TPV",14,15,23,28,19.424375,-99.172575
"277",23,"REFORMA-PRAGA","06500","JUA","Juárez","BIKE",15,16,22,15,19.425483,-99.170414
"278",24,"REFORMA-VARSOVIA","06500","JUA","Juárez","BIKE,TPV",16,23,16,23,19.426102,-99.168992
"279",25,"REFORMA-ESTOCOLMO","06500","JUA","Juárez","BIKE",17,18,17,18,19.426944,-99.166946
"280",26,"REFORMA-VERSALLES","06500","JUA","Juárez","BIKE,TPV",10,10,10,10,19.432685,-99.154726
"281",27,"REFORMA-HAVRE","06500","JUA","Juárez","BIKE,TPV",19,26,19,26,19.429115,-99.162614
"282",28,"TOLEDO-TOKIO","06500","JUA","Juárez","BIKE",14,21,22,14,19.423542,-99.172494
"283",404,"MIGUEL LAURENT-AVENIDA DIVISIÓN DEL NORTE","3650","LEV","Letran Valle","BIKE",402,403,405,402,19.373813,-99.157387
"284",375,"TENAYUCA-DIVISIÓN DEL NORTE","3650","LEV","Letran Valle","BIKE",359,374,376,359,19.376865,-99.158818
"285",376,"PITÁGORAS-AV. UNIVERSIDAD","3650","LEV","Letran Valle","BIKE",374,375,377,374,19.375442,-99.161595
"286",333,"GEORGIA -CAROLINA","3810","NAP","Nápoles","BIKE",330,332,349,330,19.387624,-99.180978
"287",284,"DAKOTA-VERMONT","3810","NAP","Nápoles","BIKE",289,290,291,289,19.397693,-99.172981
"288",303,"MONTESITO-AV. INSURGENTES","3810","NAP","Nápoles","BIKE,TPV",301,302,304,301,19.394842,-99.173025
"289",304,"MONTESITO-DAKOTA","3810","NAP","Nápoles","BIKE",290,303,305,290,19.395043,-99.173821
"290",309,"PENNSYLVANIA-ARIZONA","3810","NAP","Nápoles","BIKE",308,310,313,308,19.393162,-99.17956
"291",306,"DAKOTA-FILADELFIA","3810","NAP","Nápoles","BIKE,TPV",305,307,308,305,19.393699,-99.175664
"292",307,"MINESOTA-DAKOTA","3810","NAP","Nápoles","BIKE",305,306,308,305,19.393701,-99.175834
"293",289,"CHICAGO-YOSEMITE","3810","NAP","Nápoles","BIKE",284,290,304,284,19.397308,-99.174548
"294",290,"YOSEMITE-COLORADO","3810","NAP","Nápoles","BIKE",284,289,303,284,19.396333,-99.172667
"295",314,"NUERVA YORK-LOUISIANA","3810","NAP","Nápoles","BIKE",307,313,327,307,19.391647,-99.177331
"296",315,"ALABAMA-MONTANA","3810","NAP","Nápoles","BIKE",301,302,316,301,19.391472,-99.1736
"297",327,"GEORGIA -PENNSYLVANIA","3810","NAP","Nápoles","BIKE",313,314,326,313,19.38885,-99.17772
"298",320,"ENRIQUE RÉBSAMEN-LUZ SAVIÑON","3020","NAR","Narvarte Poniente","BIKE",296,297,319,296,19.391323,-99.15936
"299",294,"NICOLÁS SAN JUAN-EJE 4 SUR XOLA","3020","NAR","Narvarte Poniente","BIKE",282,295,298,282,19.396513,-99.160924
"300",295,"ANAXÁGORAS-EJE 4 SUR XOLA","3020","NAR","Narvarte Poniente","BIKE",281,296,297,281,19.396328,-99.156871
"301",296,"DIAGONAL SAN ANTONIO-ENRIQUE RÉBSAMEN","3020","NAR","Narvarte Poniente","BIKE",295,297,320,295,19.394283,-99.158756
"302",297,"DIAGONAL SAN ANTONIO-ENRIQUE RÉBSAMEN","3020","NAR","Narvarte Poniente","BIKE",295,296,320,295,19.394412,-99.158907
"303",280,"ANAXÁGORAS-OBRERO MUNDIAL","3020","NAR","Narvarte Poniente","BIKE,TPV",276,277,281,276,19.4015,-99.156406
"304",281,"PITÁGORAS-LA MORENA","3020","NAR","Narvarte Poniente","BIKE",276,280,295,276,19.398532,-99.157308
"305",276,"ANAXÁGORAS-OBRERO MUNDIAL","3020","NAR","Narvarte Poniente","BIKE",277,280,281,277,19.401986,-99.156366
"306",339,"ENRIQUE RÉBSAMEN-AVENIDA EUGENIA","3020","NAR","Narvarte Poniente","BIKE",322,340,343,322,19.386032,-99.160548
"307",340,"ANAXÁGORAS-AVENIDA EUGENIA","3020","NAR","Narvarte Poniente","BIKE,TPV",339,341,343,339,19.385571,-99.158188
"308",341,"SAN BORJA-AVENIDA CUAUHTEMOC","3020","NAR","Narvarte Poniente","BIKE",340,343,364,340,19.382851,-99.158204
"309",342,"ANAXÁGORAS-ANGEL URRAZA EJE 6 SUR","3020","NAR","Narvarte Poniente","BIKE",341,344,359,341,19.381076,-99.159455
"310",367,"BOSTON -AUGUSTO RODÍN","3720","NBU","Noche Buena","BIKE",362,363,366,362,19.37946,-99.181632
"311",354,"BOSTON-AV. INSURGENTES","3720","NBU","Noche Buena","BIKE",353,361,369,353,19.381665,-99.176685
"312",451,"CAMPOS ELÍSEOS-GOLDSMITH",NA,"POL","Polanco","BIKE",451,451,451,451,19.42902,-99.201322
"313",233,"JULIO VERNE-LUIS G. URBINA ","11510","POL","Polanco","BIKE,TPV",222,230,231,222,19.429314,-99.196965
"314",239,"RINCON DEL BOSQUE-RUBEN DARÍO ","11510","POL","Polanco","BIKE",226,247,250,226,19.430153,-99.181355
"315",240,"EJERCITO NACIONAL-F.C. DE CUERNAVACA ",NA,"POL","Polanco","BIKE,TPV",198,241,198,241,19.43855,-99.2063
"316",241,"EJERCITO NAL-JUAN VAZQUEZ DE LA MELLA ",NA,"POL","Polanco","BIKE",198,240,198,240,19.43862,-99.20758
"317",235,"CAMPOS ELISEOS-MOLIERE ",NA,"POL","Polanco","BIKE",229,230,236,229,19.42933,-99.20218
"318",236,"CAMPOS ELISEOS-MOLIERE ",NA,"POL","Polanco","BIKE",229,230,235,229,19.42944,-99.20243
"319",196,"LAGO TANGANICA-AV. EJERCITO NACIONAL","11510","POL","Polanco","BIKE",204,244,245,204,19.438349,-99.192904
"320",228,"CAMPOS ELÍSEOS-JEAN DE LA FONTAINE","11510","POL","Polanco","BIKE,TPV",230,233,235,230,19.427705,-99.19912
"321",229,"DICKENS-SENECA","11510","POL","Polanco","BIKE",221,235,236,221,19.430515,-99.203331
"322",230,"EDGAR ALAN POE-DICKENS","11510","POL","Polanco","BIKE",221,235,236,221,19.430098,-99.200074
"323",231,"NEWTON-ARISTOTELES ","11510","POL","Polanco","BIKE",222,223,234,222,19.42977,-99.19349
"324",198,"SÓCRATES-EJERCITO NACIONAL ",NA,"POL","Polanco","BIKE,TPV",240,241,240,241,19.438168,-99.203888
"325",199,"ANATOLE FRANCE-AV. EJERCITO NACIONAL","11510","POL","Polanco","BIKE",196,202,203,196,19.437934,-99.197241
"326",200,"EMERSON-AV. EJERCITO NACIONAL","11510","POL","Polanco","BIKE",201,204,245,201,19.437596,-99.188785
"327",201,"LOPE DE VEGA-EJERCITO NACIONAL ","11510","POL","Polanco","BIKE",200,205,245,200,19.437431,-99.187215
"328",202,"CALDERON DE LA BARCA-AV. HOMERO","11510","POL","Polanco","BIKE",199,206,215,199,19.43617,-99.198943
"329",203,"TENNYSON-AV. HOMERO","11510","POL","Polanco","BIKE",196,204,210,196,19.435985,-99.194832
"330",205,"TAINE-HOMERO","11510","POL","Polanco","BIKE",201,207,217,201,19.435525,-99.184713
"331",206,"MOLIERE-HOMERO ",NA,"POL","Polanco","BIKE,TPV",202,214,215,202,19.435798,-99.201419
"332",207,"TASSO-HOMERO ","11510","POL","Polanco","BIKE",205,217,226,205,19.434861,-99.183322
"333",208,"HESIODO-LAMARTINE ","11510","POL","Polanco","BIKE",211,212,218,211,19.434182,-99.189835
"334",209,"SOLON-HORACIO ","11510","POL","Polanco","BIKE",213,214,219,213,19.435478,-99.206359
"335",210,"EUGENIO SUE-HORACIO ",NA,"POL","Polanco","BIKE",203,204,216,203,19.434076,-99.194091
"336",211,"NEWTON-HORACIO","11510","POL","Polanco","BIKE",208,212,218,208,19.433607,-99.188528
"337",212,"HEGEL-HORACIO ","11510","POL","Polanco","BIKE,TPV",211,218,224,211,19.433567,-99.188096
"338",213,"SOLÓN-CICERÓN","11510","POL","Polanco","BIKE",209,214,219,209,19.434354,-99.20632
"339",214,"PLATÓN-HORACIO",NA,"POL","Polanco","BIKE",206,209,215,206,19.434353,-99.20322
"340",215,"EDGAR ALAN POE-HORACIO","11510","POL","Polanco","BIKE",206,214,221,206,19.43384,-99.19968
"341",216,"ALEJANDRO DUMAS-HORACIO ","11510","POL","Polanco","BIKE,TPV",210,222,210,222,19.433419,-99.195746
"342",217,"EULER-AV. HORACIO ","11510","POL","Polanco","BIKE,TPV",207,225,226,207,19.432888,-99.183605
"343",218,"HEGEL-IBARBOUROU ","11510","POL","Polanco","BIKE",211,212,224,211,19.432451,-99.188033
"344",219,"ESOPO-FC DE CUERNAVACA","11510","POL","Polanco","BIKE",213,220,227,213,19.433542,-99.207808
"345",220,"PLINIO-PRESIDENTE MASARYK ","11510","POL","Polanco","BIKE",213,219,227,213,19.432655,-99.205727
"346",221,"EMILIO CASTELAR-PRESIDENTE MASARYK ","11510","POL","Polanco","BIKE,TPV",215,230,231,215,19.431799,-99.201565
"347",222,"ALEJANDRO DUMAS-PRESIDENTE MASARYK","11510","POL","Polanco","BIKE",216,231,233,216,19.431417,-99.195774
"348",223,"NEWTON-PRESIDENTE MASARYK ",NA,"POL","Polanco","BIKE,TPV",222,224,231,222,19.431242,-99.191613
"349",224,"HEGEL-PRESIDENTE MASARYK","11510","POL","Polanco","BIKE",212,218,225,212,19.431255,-99.188065
"350",225,"PETRARCA-PRESIDENTE MASARYK","11510","POL","Polanco","BIKE",224,226,232,224,19.431172,-99.185612
"351",226,"WALLON-PRESIDENTE MASARYK","11511","POL","Polanco","BIKE",217,239,247,217,19.431033,-99.18222
"352",405,"DIVISIÓN DEL NORTE-MUNICIPIO LIBRE","3303","PON","Portales Norte","BIKE",402,403,404,402,19.370619,-99.156626
"353",407,"PROL. XOCHICALCO-GENERAL EMILIANO ZAPATA","3320","REE","Residencial Emperadores","BIKE",406,408,410,406,19.367294,-99.158694
"354",408,"PROLONGACIÓN PETÉN-GENERAL EMILIANO ZAPATA","3320","REE","Residencial Emperadores","BIKE",407,409,410,407,19.36677,-99.156843
"355",37,"GUADALAJARA-PUEBLA","06700","R-N","Roma Norte","BIKE",28,38,45,28,19.420419,-99.172676
"356",38,"COZUMEL-PUEBLA","06700","R-N","Roma Norte","BIKE",28,32,37,28,19.420801,-99.171407
"357",39,"MEDELLIN-CHAPULTEPEC","06700","R-N","Roma Norte","BIKE",33,42,48,33,19.422484,-99.167153
"358",40,"OAXACA-PUEBLA","06700","R-N","Roma Norte","BIKE",35,42,35,42,19.42223,-99.164297
"359",56,"ALVARO OBREGON-MEDELLIN","06700","R-N","Roma Norte","BIKE",47,51,55,59,19.416959,-99.165702
"360",42,"SINALOA-VALLADOLID","06700","R-N","Roma Norte","BIKE",39,47,48,51,19.420472,-99.168238
"361",51,"COLIMA-OAXACA","06700","R-N","Roma Norte","BIKE",46,47,55,58,19.417995,-99.168248
"362",44,"DURANGO-VERACRUZ","06140","R-N","Roma Norte","BIKE",36,41,49,50,19.418057,-99.174761
"363",45,"DURANGO-SONORA","06700","R-N","Roma Norte","BIKE,TPV",37,38,41,46,19.418649,-99.172127
"364",46,"DURANGO-SALAMANCA","06700","R-N","Roma Norte","BIKE",42,45,51,54,19.419214,-99.169732
"365",125,"MORELIA-CIRCULAR DE MORELIA","06500","R-N","Roma Norte","BIKE",119,123,127,119,19.424541,-99.156204
"366",126,"JALAPA-PUEBLA",NA,"R-N","Roma Norte","BIKE",121,128,129,121,19.422288,-99.162138
"367",127,"PUEBLA-MERIDA",NA,"R-N","Roma Norte","BIKE",125,128,130,125,19.423318,-99.15833
"368",128,"ORIZABA-RIO DE JANEIRO","06500","R-N","Roma Norte","BIKE,TPV",121,126,127,121,19.422148,-99.160645
"369",129,"TONALÁ-DURANGO",NA,"R-N","Roma Norte","BIKE",126,128,131,126,19.4206,-99.163312
"370",130,"MÉRIDA-DURANGO",NA,"R-N","Roma Norte","BIKE",127,132,133,127,19.421576,-99.158015
"371",131,"COLIMA-JALAPA",NA,"R-N","Roma Norte","BIKE",129,134,129,134,19.419579,-99.161314
"372",132,"COLIMA-FRONTERA",NA,"R-N","Roma Norte","BIKE",130,133,135,130,19.420667,-99.15645
"373",133,"COLIMA-MORELIA",NA,"R-N","Roma Norte","BIKE",130,132,135,130,19.421138,-99.154725
"374",134,"ÁLVARO OBREGÓN-ORIZABA",NA,"R-N","Roma Norte","BIKE,TPV",131,136,137,131,19.418304,-99.15956
"375",135,"ÁLVARO OBREGÓN-MORELIA",NA,"R-N","Roma Norte","BIKE,TPV",132,133,137,132,19.419225,-99.155099
"376",136,"ÁLVARO OBREGÓN-TONALÁ",NA,"R-N","Roma Norte","BIKE,TPV",136,136,136,136,19.417715,-99.162729
"377",137,"ÁLVARO OBREGÓN-MÉRIDA",NA,"R-N","Roma Norte","BIKE",132,135,138,132,19.418774,-99.157081
"378",138,"GUANAJUATO-FRONTERA",NA,"R-N","Roma Norte","BIKE",135,140,144,135,19.417702,-99.155313
"379",139,"TONALÁ-GUANJUATO",NA,"R-N","Roma Norte","BIKE",134,136,141,134,19.416128,-99.162097
"380",140,"MÉRIDA-ZACATECAS",NA,"R-N","Roma Norte","BIKE",138,141,144,138,19.416605,-99.156853
"381",141,"ZACATECAS-LUIS CABRERA",NA,"R-N","Roma Norte","BIKE,TPV",139,140,143,139,19.415905,-99.15954
"382",142,"SAN LUIS POTOSI-EJE 2 PTE. MONTERREY",NA,"R-N","Roma Norte","BIKE",139,145,146,139,19.413232,-99.164121
"383",143,"CÓRDOBA-SAN LUIS POTOSÍ",NA,"R-N","Roma Norte","BIKE",141,144,147,141,19.414303,-99.157542
"384",144,"FRONTERA-SAN LUIS POTOSÍ",NA,"R-N","Roma Norte","BIKE",140,143,148,140,19.415192,-99.154837
"385",145,"EJE 2 SUR YUCATÁN-CHIAPAS",NA,"R-N","Roma Norte","BIKE",142,147,151,142,19.41286,-99.160661
"386",146,"COAHUILA-MANZANILLO",NA,"R-N","Roma Norte","BIKE",150,152,153,150,19.410737,-99.165716
"387",147,"COAHUILA-ORIZABA",NA,"R-N","Roma Norte","BIKE",145,149,151,145,19.412182,-99.158443
"388",148,"COAHUILA-AV.CUAUHTEMOC",NA,"R-N","Roma Norte","BIKE",143,147,149,143,19.412829,-99.155116
"389",149,"MÉRIDA-ANTONIO ANZA",NA,"R-N","Roma Norte","BIKE",143,147,148,143,19.41199,-99.155699
"390",151,"CAMPECHE-TONALÁ",NA,"ROM","Roma Sur","BIKE",145,147,155,145,19.410529,-99.160873
"391",152,"TLACOTALPAN-CAMPECHE",NA,"ROM","Roma Sur","BIKE,TPV",146,150,157,146,19.409098,-99.167181
"392",153,"MANZANILLO-TLAXCALA",NA,"ROM","Roma Sur","BIKE",154,157,161,154,19.407468,-99.165141
"393",155,"JALAPA-TLAXCALA",NA,"ROM","Roma Sur","BIKE",151,156,158,151,19.408218,-99.159911
"394",156,"TEPIC-AMENALCO",NA,"ROM","Roma Sur","BIKE",153,155,162,153,19.407121,-99.162202
"395",157,"TEPIC-TLACOTALPAN",NA,"ROM","Roma Sur","BIKE",153,154,161,153,19.406236,-99.166616
"396",158,"HUATABAMPO-EJE 1PTE. CUAUHTÉMOC",NA,"ROM","Roma Sur","BIKE,TPV",155,159,163,155,19.407447,-99.155717
"397",159,"HUATABAMPO-EJE 1 PTE. AV. CUAUHTÉMOC",NA,"ROM","Roma Sur","BIKE",155,158,163,155,19.407517,-99.155373
"398",161,"QUINTANA ROO-MANZANILLO",NA,"ROM","Roma Sur","BIKE",153,157,162,153,19.405533,-99.164913
"399",162,"TEHUANTEPEC-MEDELLÍN",NA,"ROM","Roma Sur","BIKE",156,161,165,156,19.404907,-99.162485
"400",163,"TOLUCA-BAJÍO",NA,"ROM","Roma Sur","BIKE",158,159,165,158,19.405246,-99.156431
"401",164,"BAJÍO-TLACOTALPAN",NA,"ROM","Roma Sur","BIKE",157,161,162,157,19.403204,-99.16596
"402",165,"BAJÍO-EJE 2 PTE. MONTERREY",NA,"ROM","Roma Sur","BIKE",156,162,163,156,19.404268,-99.160503
"403",409,"AZORES-DIVISIÓN DEL NORTE","3310","SCA","Santa Cruz Atoyac","BIKE",408,410,430,408,19.365102,-99.155499
"404",410,"PROLONGACIÓN TAJÍN-PROLONGACIÓN REPÚBLICAS","3310","SCA","Santa Cruz Atoyac","BIKE",407,408,409,407,19.36564,-99.158063
"405",411,"PARROQUIA-AVENIDA MÉXICO-COYOACAN","3310","SCA","Santa Cruz Atoyac","BIKE",412,425,427,412,19.367864,-99.163626
"406",412,"PARROQUIA-AVENIDA UNIVERSIDAD","3310","SCA","Santa Cruz Atoyac","BIKE,TPV",411,425,426,411,19.3684182,-99.1654145
"407",406,"PARROQUIA AV. MEXICO-COYOACAN","3310","SCA","Santa Cruz Atoyac","BIKE",402,407,411,402,19.367831,-99.163261
"408",427,"AVENIDA MÉXICO-COYOACAN-AV. POPOCATEPETL (EJE ","3310","SCA","Santa Cruz Atoyac","BIKE",411,412,426,411,19.365023,-99.162993
"409",429,"PIRINEOS-AV. POPOCATEPETL (EJE 8)","3310","SCA","Santa Cruz Atoyac","BIKE",428,430,431,428,19.363071,-99.158292
"410",430,"TRIPOLI-AV. POPOCATEPETL (EJE 8)","3310","SCA","Santa Cruz Atoyac","BIKE",409,429,431,409,19.362139,-99.154974
"411",401,"SAN LORENZO-AVENIDA CUAUHTEMOC","3310","SCA","Santa Cruz Atoyac","BIKE",400,402,403,400,19.372147,-99.16158
"412",403,"UXMAL-MUNICIPIO LIBRE","3310","SCA","Santa Cruz Atoyac","BIKE",401,402,405,401,19.371371,-99.158639
"413",184,"GRAL GÓMEZ PEDRAZA-GOBERNADOR TIBURCIO M",NA,"SMC","San Miguel Chapultepec ","BIKE,TPV",185,186,187,185,19.41479,-99.18508
"414",185,"GRAL ANTONIO LÉON-GRAL PEDRO A DE LOS S.",NA,"SMC","San Miguel Chapultepec ","BIKE",176,187,190,176,19.4128,-99.1828
"415",186,"GREGORIO V GELATI-FRANCISCO MOLINOS DEL C",NA,"SMC","San Miguel Chapultepec ","BIKE",187,188,189,187,19.41249,-99.18875
"416",187,"GENERAL CANO-GOBERNADOR GREGORIO V GELATI",NA,"SMC","San Miguel Chapultepec ","BIKE",176,189,190,176,19.41123,-99.18551
"417",188,"GDOR MELCHOR MÚZQUIZ-GDOR IGNACIO ESTEVA ",NA,"SMC","San Miguel Chapultepec ","BIKE,TPV",186,187,189,186,19.41171,-99.19014
"418",189,"GDOR RAFAEL REBOLLAR-GDOR JOSÉ CEBALLOS",NA,"SMC","San Miguel Chapultepec ","BIKE",186,187,188,186,19.41004,-99.18798
"419",190,"GDOR IGNACIO ESTEVA-MTRO JOSÉ VASCONCELOS",NA,"SMC","San Miguel Chapultepec ","BIKE",177,187,177,187,19.409569,-99.183833
"420",191,"GDOR RAFAEL REBOLLAR-GDOR VICENTE EGUIA",NA,"SMC","San Miguel Chapultepec ","BIKE",176,189,190,176,19.4079,-99.18795
"421",364,"BOTICHELLI-CDA. DE GIORGONE","3700","SMN","Santa María Nonoalco","BIKE",351,352,351,352,19.383063,-99.185858
"422",365,"HOLBEIN-AVENIDA REVOLUCIÓN","3700","SMN","Santa María Nonoalco","BIKE",352,363,364,352,19.381117,-99.186687
"423",352,"TINTORETO-GIORGINE","3700","SMN","Santa María Nonoalco","BIKE,TPV",351,364,351,364,19.384114,-99.185447
"424",351,"CALLE 27-AVENIDA REVOLUCIÓN","3800","SPP","San Pedro de los Pinos","BIKE",332,352,364,332,19.385751,-99.186297
"425",312,"AVENIDA 2-CALLE 7","3800","SPP","San Pedro de los Pinos","BIKE,TPV",310,311,328,310,19.392634,-99.183737
"426",328,"AVENIDA 1-CALLE 7","3800","SPP","San Pedro de los Pinos","BIKE",311,312,329,311,19.392586,-99.184742
"427",329,"CALLE 13-AVENIDA 1","3800","SPP","San Pedro de los Pinos","BIKE",312,328,330,312,19.390306,-99.184812
"428",330,"CALLE 15-AVENIDA PATRIOTISMO","3800","SPP","San Pedro de los Pinos","BIKE",329,331,332,329,19.389358,-99.182606
"429",331,"AVENIDA 2-CALLE 17","3800","SPP","San Pedro de los Pinos","BIKE",329,330,332,329,19.388547,-99.183971
"430",332,"SUR DE CALLE 27-AVENIDA 3","3800","SPP","San Pedro de los Pinos","BIKE",330,331,333,330,19.385508,-99.183809
"431",263,"SADI CARNOT-GÓMEZ FARIAS ",NA,"S-R","San Rafael","BIKE,TPV",85,86,256,85,19.436274,-99.158425
"432",256,"GÓMEZ FARÍAS-SADI CARNOT ",NA,"S-R","San Rafael","BIKE",254,259,254,259,19.4372,-99.15816
"433",257,"MANUEL MARIA CONTRERAS-VILLALONGIN ",NA,"S-R","San Rafael","BIKE",183,255,183,255,19.4338,-99.16622
"434",254,"ALFONSO HERRERA-MIGUEL SHULTZ ",NA,"S-R","San Rafael","BIKE",160,174,256,160,19.43935,-99.16007
"435",183,"GABINO BARRERA-GUILLERMO PRIETO",NA,"S-R","San Rafael","BIKE",160,174,255,160,19.43767,-99.16402
"436",160,"ALFONSO HERRERA-GABINO BARRERA",NA,"S-R","San Rafael","BIKE",174,183,254,174,19.44025,-99.16346
"437",103,"JOAQUÍN VELÁZQUEZ DE LEÓN-GARCÍA ICAZBALCETA",NA,"S-R","San Rafael","BIKE",103,103,103,103,19.441669,-99.165217
"438",85,"ROSAS MORENO-SULLIVAN","06470","S-R","San Rafael","BIKE",1,3,12,1,19.43425,-99.162508
"439",10,"REFORMA-RAMIREZ","06500","TAB","Tabacalera","BIKE,TPV",26,26,26,26,19.433321,-99.154752
"440",8,"REFORMA-GENERAL PRIM","06500","TAB","Tabacalera","BIKE",3,20,86,3,19.431141,-99.158317
"441",270,"DE LA REPUBLICA-PONCIANO ARRIAGA ",NA,"TAB","Tabacalera","BIKE,TPV",270,270,270,270,19.43676,-99.15387
"442",450,"RAMOS ARIZPE-PUENTE DE ALVARADO",NA,"TAB","Tabacalera","BIKE",450,450,450,450,19.43836,-99.152226
"443",392,"PATRICIO SANZ-FELIX CUEVAS","3200","TLA","Tlacoquemecatl","BIKE",380,393,394,380,19.3730067,-99.1747749
"444",393,"ADOLFO PRIETO-FELIX CUEVAS","3200","TLA","Tlacoquemecatl","BIKE,TPV",380,392,394,380,19.372796,-99.172558
"445",370,"TLACOQUEMECATL-AV. INSURGENTES","3200","TLA","Tlacoquemecatl","BIKE",361,369,371,361,19.378818,-99.177054
"446",371,"TLACOQUEMECATL-CAPULIN","3200","TLA","Tlacoquemecatl","BIKE",361,369,370,361,19.378542,-99.174328
"447",380,"MORAS-SAN LORENZO","3200","TLA","Tlacoquemecatl","BIKE",392,393,394,392,19.374876,-99.173512
"448",381,"SAN LORENZO-MANZANAS","3200","TLA","Tlacoquemecatl","BIKE",382,387,389,382,19.375541,-99.177894
"449",382,"SAN LORENZO-AV. INSURGENTES"," 3200 ","TLA","Tlacoquemecatl","BIKE",381,387,389,381,19.375591,-99.178084
"450",441,"PUENTE XOCO-REAL DE MAYORAZGO","3330","XOC","Xoco","BIKE",433,440,442,433,19.361215,-99.167527
"451",442,"REAL DE MAYORAZGO-AVENIDA MÉXICO-COYOACAN","3330","XOC","Xoco","BIKE,TPV",432,443,444,432,19.359905,-99.1653
"452",426,"CERRADA DE POPOCATEPETL-AV. POPOCATEPETL (EJE ","3330","XOC","Xoco","BIKE",411,412,425,411,19.365519,-99.166017
